BEIDOU 3 (C01)          
1 36287U 10001A   21189.61777847 -.00000273  00000-0  00000-0 0  9999
2 36287   1.9067  47.2702 0005559  83.3542 158.9728  1.00269300 42065
BEIDOU 5 (C06)          
1 36828U 10036A   21189.60755081 -.00000026  00000-0  00000-0 0  9999
2 36828  54.1808 179.3972 0114566 235.6622 207.4533  1.00253853 40120
BEIDOU 6 (C04)          
1 37210U 10057A   21189.62170410 -.00000102  00000-0  00000-0 0  9992
2 37210   0.8744  49.9799 0004589 121.0137 139.5879  1.00273459 39180
BEIDOU 7 (C07)          
1 37256U 10068A   21189.42587631 -.00000213  00000-0  00000-0 0  9992
2 37256  50.8237 293.7507 0086696 215.7454  45.9584  1.00246755 38697
BEIDOU 8 (C08)          
1 37384U 11013A   21189.54111968 -.00000193  00000-0  00000-0 0  9991
2 37384  59.8056  57.6820 0054040 207.2100 332.4226  1.00301166 37575
BEIDOU 9 (C09)          
1 37763U 11038A   21189.42618822 -.00000005  00000-0  00000-0 0  9999
2 37763  54.4675 181.8429 0084346 226.9434 125.6484  1.00260838 36543
BEIDOU 10 (C10)         
1 37948U 11073A   21189.49335005 -.00000153  00000-0  00000-0 0  9993
2 37948  50.9275 293.3690 0076369 214.9803  50.7874  1.00288622 35302
BEIDOU 11 (C05)         
1 38091U 12008A   21189.76112498  .00000066  00000-0  00000+0 0  9992
2 38091   1.5970  68.5894 0007650 334.8537 216.2854  1.00267996 34382
BEIDOU 12 (C11)         
1 38250U 12018A   21189.56874438 -.00000082  00000-0  00000-0 0  9997
2 38250  56.7553   4.9158 0020209 246.2146 164.7616  1.86234350 62681
BEIDOU 13 (C12)         
1 38251U 12018B   21189.43205755 -.00000083  00000-0  00000-0 0  9995
2 38251  56.6737   4.2658 0010980 247.3799 116.3434  1.86234134 62685
BEIDOU 15 (C14)         
1 38775U 12050B   21189.39793966 -.00000025  00000-0  00000-0 0  9999
2 38775  55.2187 123.2773 0015427 320.9070 217.3498  1.86232329 60056
BEIDOU 16 (C02)         
1 38953U 12059A   21189.15726403 -.00000167  00000-0  00000-0 0  9999
2 38953   2.0167  84.6184 0006612 297.6687  44.6884  1.00270759 31949
BEIDOU 17 (C31)         
1 40549U 15019A   21189.49365155 -.00000183  00000-0  00000-0 0  9990
2 40549  52.4623 316.7457 0039138 187.5455  55.0804  1.00261075 22983
BEIDOU 18 (C57)         
1 40748U 15037A   21189.56578586 -.00000085  00000-0  00000-0 0  9994
2 40748  55.9336   3.3358 0004294  45.5976 317.6370  1.86233380 40514
BEIDOU 19 (C58)         
1 40749U 15037B   21189.22127797 -.00000086  00000-0  00000-0 0  9993
2 40749  55.9399   3.3349 0003054 350.1990 278.0847  1.86232297 40490
BEIDOU 20 (C18)         
1 40938U 15053A   21189.35890240 -.00000126  00000-0  00000-0 0  9990
2 40938  52.0299 279.8250 0048042 192.6477  39.7307  1.00279007 21255
BEIDOU IGSO-6 (C13)     
1 41434U 16021A   21188.95796110 -.00000158  00000-0  00000-0 0  9999
2 41434  57.5901  56.4234 0037998 212.5421  97.9008  1.00265175 19372
BEIDOU-2 G7 (C03)       
1 41586U 16037A   21189.54007285 -.00000346  00000-0  00000-0 0  9997
2 41586   1.7434  67.6220 0008792  19.3504 144.7058  1.00270174 18691
BEIDOU-3 M1 (C19)       
1 43001U 17069A   21189.29689127 -.00000026  00000-0  00000-0 0  9995
2 43001  55.3723 123.2351 0011673 293.5642 332.9575  1.86231832 24982
BEIDOU-3 M2 (C20)       
1 43002U 17069B   21189.23035105 -.00000026  00000-0  00000-0 0  9991
2 43002  55.3719 123.2732 0010226 312.4897 312.8675  1.86231378 24979
BEIDOU-3 M3 (C27)       
1 43107U 18003A   21189.39855895 -.00000086  00000-0  00000-0 0  9995
2 43107  55.3804   4.4136 0005558  57.5395 126.4774  1.86232497 23746
BEIDOU-3 M4 (C28)       
1 43108U 18003B   21189.38611609 -.00000086  00000-0  00000-0 0  9998
2 43108  55.3764   4.4028 0002053 230.2935 350.5534  1.86232447 23748
BEIDOU-3 M5 (C21)       
1 43207U 18018A   21188.96688352 -.00000027  00000-0  00000-0 0  9991
2 43207  55.3312 123.3720 0007845 329.7406  30.1819  1.86231705 23123
BEIDOU-3 M6 (C22)       
1 43208U 18018B   21188.49661611 -.00000029  00000-0  00000-0 0  9991
2 43208  55.3311 123.3935 0009886 303.9855  55.8870  1.86231601 23115
BEIDOU-3 M7 (C29)       
1 43245U 18029A   21189.53217723 -.00000087  00000-0  00000-0 0  9995
2 43245  55.3090   2.1976 0001288  84.8406  98.9699  1.86232738 22280
BEIDOU-3 M8 (C30)       
1 43246U 18029B   21189.25180605 -.00000088  00000-0  10000-3 0  9998
2 43246  55.3078   2.2377 0003914   9.6700  32.3632  1.86233132 22270
BEIDOU IGSO-7 (C16)     
1 43539U 18057A   21189.39672699 -.00000064  00000-0  00000-0 0  9998
2 43539  55.0598 178.7637 0039270 223.9222 139.6499  1.00262432 11069
BEIDOU-3 M9 (C23)       
1 43581U 18062A   21189.40401211  .00000066  00000-0  00000-0 0  9994
2 43581  54.3924 243.8788 0005173 261.7809  92.4347  1.86231892 20011
BEIDOU-3 M10 (C24)      
1 43582U 18062B   21189.40826594  .00000066  00000-0  00000-0 0  9990
2 43582  54.3918 243.8683 0004191 331.6179 116.8047  1.86232326 20027
BEIDOU-3 M11 (C25)      
1 43602U 18067A   21189.32800725  .00000068  00000-0  00000-0 0  9999
2 43602  54.4686 242.4553 0006314 352.9254  83.8792  1.86231676 19512
BEIDOU-3 M12 (C26)      
1 43603U 18067B   21189.27207105  .00000068  00000-0  00000-0 0  9997
2 43603  54.4658 242.4248 0003881 332.9190 336.8432  1.86231785 19520
BEIDOU-3 M13 (C32)      
1 43622U 18072A   21189.16519372 -.00000027  00000-0  00000-0 0  9990
2 43622  55.2963 122.9329 0007963 291.6585 336.5175  1.86231812 19033
BEIDOU-3 M14 (C33)      
1 43623U 18072B   21189.49246428 -.00000025  00000-0  00000-0 0  9994
2 43623  55.2981 122.9127 0006451 312.8004 265.0325  1.86231834 19041
BEIDOU-3 M15 (C34)      
1 43647U 18078A   21189.38570427 -.00000087  00000-0  10000-3 0  9995
2 43647  55.2037   2.3923 0006554   9.1097  32.3716  1.86232736 18552
BEIDOU-3 M16 (C35)      
1 43648U 18078B   21189.51963248 -.00000087  00000-0  00000-0 0  9994
2 43648  55.2009   2.3943 0004700  25.2229  14.4767  1.86232289 18573
BEIDOU-3 G1 (C59)       
1 43683U 18085A   21189.54591765 -.00000267  00000-0  00000-0 0  9995
2 43683   1.0247 224.5978 0002808   7.4073  31.1522  1.00277240  9967
BEIDOU-3 M17 (C36)      
1 43706U 18093A   21189.07711172  .00000065  00000-0  00000-0 0  9999
2 43706  54.4734 243.7501 0011202 266.0563  93.9125  1.86232072 17924
BEIDOU-3 M18 (C37)      
1 43707U 18093B   21189.38790543  .00000066  00000-0  00000-0 0  9994
2 43707  54.4737 243.7300 0009147 287.2708  11.9414  1.86232159 17912
BEIDOU-3 IGSO-1 (C38)   
1 44204U 19023A   21189.54077073 -.00000213  00000-0  00000-0 0  9990
2 44204  56.0490  56.6905 0018674 191.2462 346.5032  1.00289287  8268
BEIDOU-2 G8             
1 44231U 19027A   21189.61865083 -.00000236  00000-0  00000-0 0  9993
2 44231   0.2566 358.7685 0006006 186.8499 108.4009  1.00274710  7971
BEIDOU-3 IGSO-2 (C39)   
1 44337U 19035A   21189.39576740 -.00000062  00000-0  00000-0 0  9990
2 44337  55.0950 174.8057 0020265 194.3559 167.5509  1.00275418  7604
BEIDOU-3 M23 (C45)      
1 44542U 19061A   21189.12359384  .00000066  00000-0  10000-3 0  9998
2 44542  54.6986 243.8233 0008080 317.8673 117.0945  1.86231315 12173
BEIDOU-3 M24 (C46)      
1 44543U 19061B   21189.02321822  .00000065  00000-0  10000-3 0  9993
2 44543  54.6966 243.7961 0005869 299.8578 338.6921  1.86231872 12166
BEIDOU-3 IGSO-3         
1 44709U 19073A   21189.27952706 -.00000184  00000-0  00000-0 0  9997
2 44709  57.8085 299.9436 0020666 200.1929 353.8098  1.00270642  6356
BEIDOU-3 M21            
1 44793U 19078A   21187.23938313 -.00000093  00000-0  10000-3 0  9990
2 44793  55.0546   2.5277 0006277  14.7472 342.1431  1.86232523 10993
BEIDOU-3 M22            
1 44794U 19078B   21189.60652904 -.00000087  00000-0  00000-0 0  9992
2 44794  55.0269   2.4462 0004710  16.3301  38.6456  1.86232843 11046
BEIDOU-3 M19            
1 44864U 19090A   21189.36967976 -.00000025  00000-0  00000-0 0  9997
2 44864  55.2310 123.1549 0017329 270.4847 180.2925  1.86231926 10627
BEIDOU-3 M20            
1 44865U 19090B   21189.36940403 -.00000025  00000-0  00000-0 0  9994
2 44865  55.2338 123.1866 0016249 284.4900 256.0204  1.86231925 10592
BEIDOU-3 G2             
1 45344U 20017A   21189.60582715 -.00000128  00000-0  00000-0 0  9997
2 45344   2.4015 337.4373 0004193 135.2769 112.2117  1.00272290  5175
BEIDOU-3 G3             
1 45807U 20040A   21189.61184644 -.00000340  00000-0  00000-0 0  9993
2 45807   2.2333 298.6499 0004434 349.0609 329.8452  1.00274591  3984
